[{"OBJECT_NAME":"CSTP 1.2 (STC 1.2)","OBJECT_ID":"2023-091W","EPOCH":"2026-03-09T23:12:27.821952","MEAN_MOTION":15.2718076,"ECCENTRICITY":0.00204388,"INCLINATION":97.5258,"RA_OF_ASC_NODE":134.3262,"ARG_OF_PERICENTER":84.9592,"MEAN_ANOMALY":275.3979,"EPHEMERIS_TYPE":0,"CLASSIFICATION_TYPE":"U","NORAD_CAT_ID":57186,"ELEMENT_SET_NO":999,"REV_AT_EPOCH":14930,"BSTAR":0.00043035718,"MEAN_MOTION_DOT":0.00011466,"MEAN_MOTION_DDOT":0},{"OBJECT_NAME":"STARLINK-34490","OBJECT_ID":"2025-133G","EPOCH":"2026-03-09T10:44:27.647808","MEAN_MOTION":15.30280782,"ECCENTRICITY":0.00015318,"INCLINATION":53.1602,"RA_OF_ASC_NODE":117.7617,"ARG_OF_PERICENTER":84.3428,"MEAN_ANOMALY":275.7747,"EPHEMERIS_TYPE":0,"CLASSIFICATION_TYPE":"U","NORAD_CAT_ID":64478,"ELEMENT_SET_NO":999,"REV_AT_EPOCH":4115,"BSTAR":0.0022966574,"MEAN_MOTION_DOT":0.00068461,"MEAN_MOTION_DDOT":0}]
